{
  "type": "FeatureCollection",
  "features": [
    {
      "type": "Feature",
      "properties": {
        "norad_id": 30467,
        "name": "FENGYUN 1C DEB",
        "group": "fengyun-1c-debris",
        "lat": -48.527778550301804,
        "lon": 174.1982277362074,
        "alt_km": 827.0602597692923,
        "timestamp": "2025-12-02T08:59:32.990784+00:00",
        "meta_object_name": "FENGYUN 1C DEB",
        "meta_object_id": "1999-025AGE",
        "meta_epoch": "2025-12-01T15:31:26.271840",
        "meta_mean_motion": 14.17212805,
        "meta_eccentricity": 0.00652905,
        "meta_inclination": 98.6805,
        "meta_ra_of_asc_node": 3.4408,
        "meta_arg_of_pericenter": 158.9062,
        "meta_mean_anomaly": 318.1758,
        "meta_ephemeris_type": 0,
        "meta_classification_type": "U",
        "meta_norad_cat_id": 30467,
        "meta_element_set_no": 999,
        "meta_rev_at_epoch": 97020,
        "meta_bstar": 0.0008851646,
        "meta_mean_motion_dot": 1.781e-05,
        "meta_mean_motion_ddot": 0,
        "tle_line1": "1 30467U 99025AGE 25335.64683185  .00001781  00000+0  88516-3 0  9991",
        "tle_line2": "2 30467  98.6805   3.4408 0065290 158.9062 318.1758 14.17212805970202"
      },
      "geometry": {
        "type": "Point",
        "coordinates": [
          174.1982277362074,
          -48.527778550301804
        ]
      }
    },
    {
      "type": "Feature",
      "properties": {
        "norad_id": 30468,
        "name": "FENGYUN 1C DEB",
        "group": "fengyun-1c-debris",
        "lat": 49.88011342420827,
        "lon": 47.029463842558194,
        "alt_km": 769.1867172518869,
        "timestamp": "2025-12-02T08:59:32.990794+00:00",
        "meta_object_name": "FENGYUN 1C DEB",
        "meta_object_id": "1999-025AGF",
        "meta_epoch": "2025-12-01T19:47:16.680768",
        "meta_mean_motion": 14.2059731,
        "meta_eccentricity": 0.0072803,
        "meta_inclination": 98.9232,
        "meta_ra_of_asc_node": 57.2196,
        "meta_arg_of_pericenter": 71.653,
        "meta_mean_anomaly": 47.2361,
        "meta_ephemeris_type": 0,
        "meta_classification_type": "U",
        "meta_norad_cat_id": 30468,
        "meta_element_set_no": 999,
        "meta_rev_at_epoch": 96655,
        "meta_bstar": 0.001573,
        "meta_mean_motion_dot": 3.432e-05,
        "meta_mean_motion_ddot": 0,
        "tle_line1": "1 30468U 99025AGF 25335.82449862  .00003432  00000+0  15730-2 0  9996",
        "tle_line2": "2 30468  98.9232  57.2196 0072803  71.6530  47.2361 14.20597310966554"
      },
      "geometry": {
        "type": "Point",
        "coordinates": [
          47.029463842558194,
          49.88011342420827
        ]
      }
    },
    {
      "type": "Feature",
      "properties": {
        "norad_id": 30469,
        "name": "FENGYUN 1C DEB",
        "group": "fengyun-1c-debris",
        "lat": -40.17956499148408,
        "lon": 0.6476773985061292,
        "alt_km": 805.051298737184,
        "timestamp": "2025-12-02T08:59:32.990804+00:00",
        "meta_object_name": "FENGYUN 1C DEB",
        "meta_object_id": "1999-025AGG",
        "meta_epoch": "2025-12-01T10:10:26.154912",
        "meta_mean_motion": 13.96470209,
        "meta_eccentricity": 0.01584801,
        "meta_inclination": 98.4787,
        "meta_ra_of_asc_node": 187.0074,
        "meta_arg_of_pericenter": 201.4663,
        "meta_mean_anomaly": 281.32,
        "meta_ephemeris_type": 0,
        "meta_classification_type": "U",
        "meta_norad_cat_id": 30469,
        "meta_element_set_no": 999,
        "meta_rev_at_epoch": 95548,
        "meta_bstar": 0.00090008969,
        "meta_mean_motion_dot": 1.343e-05,
        "meta_mean_motion_ddot": 0,
        "tle_line1": "1 30469U 99025AGG 25335.42391383  .00001343  00000+0  90009-3 0  9999",
        "tle_line2": "2 30469  98.4787 187.0074 0158480 201.4663 281.3200 13.96470209955480"
      },
      "geometry": {
        "type": "Point",
        "coordinates": [
          0.6476773985061292,
          -40.17956499148408
        ]
      }
    },
    {
      "type": "Feature",
      "properties": {
        "norad_id": 30471,
        "name": "FENGYUN 1C DEB",
        "group": "fengyun-1c-debris",
        "lat": 36.58221810516659,
        "lon": 57.04982757035295,
        "alt_km": 868.6972189862536,
        "timestamp": "2025-12-02T08:59:32.990815+00:00",
        "meta_object_name": "FENGYUN 1C DEB",
        "meta_object_id": "1999-025AGJ",
        "meta_epoch": "2025-12-01T05:57:23.488128",
        "meta_mean_motion": 14.13505893,
        "meta_eccentricity": 0.0081438,
        "meta_inclination": 99.0545,
        "meta_ra_of_asc_node": 62.7067,
        "meta_arg_of_pericenter": 285.9212,
        "meta_mean_anomaly": 141.27,
        "meta_ephemeris_type": 0,
        "meta_classification_type": "U",
        "meta_norad_cat_id": 30471,
        "meta_element_set_no": 999,
        "meta_rev_at_epoch": 96280,
        "meta_bstar": 0.0019954,
        "meta_mean_motion_dot": 3.832e-05,
        "meta_mean_motion_ddot": 0,
        "tle_line1": "1 30471U 99025AGJ 25335.24818852  .00003832  00000+0  19954-2 0  9991",
        "tle_line2": "2 30471  99.0545  62.7067 0081438 285.9212 141.2700 14.13505893962809"
      },
      "geometry": {
        "type": "Point",
        "coordinates": [
          57.04982757035295,
          36.58221810516659
        ]
      }
    },
    {
      "type": "Feature",
      "properties": {
        "norad_id": 30472,
        "name": "FENGYUN 1C DEB",
        "group": "fengyun-1c-debris",
        "lat": 81.28251930984814,
        "lon": -19.597660600710086,
        "alt_km": 681.069589921105,
        "timestamp": "2025-12-02T08:59:32.990826+00:00",
        "meta_object_name": "FENGYUN 1C DEB",
        "meta_object_id": "1999-025AGK",
        "meta_epoch": "2025-12-01T19:56:21.543360",
        "meta_mean_motion": 14.53418885,
        "meta_eccentricity": 0.0038948,
        "meta_inclination": 98.6525,
        "meta_ra_of_asc_node": 76.5838,
        "meta_arg_of_pericenter": 112.9198,
        "meta_mean_anomaly": 14.1364,
        "meta_ephemeris_type": 0,
        "meta_classification_type": "U",
        "meta_norad_cat_id": 30472,
        "meta_element_set_no": 999,
        "meta_rev_at_epoch": 97882,
        "meta_bstar": 0.0026036,
        "meta_mean_motion_dot": 0.00010915,
        "meta_mean_motion_ddot": 0,
        "tle_line1": "1 30472U 99025AGK 25335.83080490  .00010915  00000+0  26036-2 0  9995",
        "tle_line2": "2 30472  98.6525  76.5838 0038948 112.9198  14.1364 14.53418885978823"
      },
      "geometry": {
        "type": "Point",
        "coordinates": [
          -19.597660600710086,
          81.28251930984814
        ]
      }
    },
    {
      "type": "Feature",
      "properties": {
        "norad_id": 30474,
        "name": "FENGYUN 1C DEB",
        "group": "fengyun-1c-debris",
        "lat": -21.587664139307794,
        "lon": -128.70596206923113,
        "alt_km": 787.9241495677488,
        "timestamp": "2025-12-02T08:59:32.990835+00:00",
        "meta_object_name": "FENGYUN 1C DEB",
        "meta_object_id": "1999-025AGM",
        "meta_epoch": "2025-12-01T19:16:02.663904",
        "meta_mean_motion": 14.37528724,
        "meta_eccentricity": 0.002325,
        "meta_inclination": 98.9299,
        "meta_ra_of_asc_node": 54.2673,
        "meta_arg_of_pericenter": 38.9666,
        "meta_mean_anomaly": 84.8589,
        "meta_ephemeris_type": 0,
        "meta_classification_type": "U",
        "meta_norad_cat_id": 30474,
        "meta_element_set_no": 999,
        "meta_rev_at_epoch": 97236,
        "meta_bstar": 0.0021474,
        "meta_mean_motion_dot": 6.412e-05,
        "meta_mean_motion_ddot": 0,
        "tle_line1": "1 30474U 99025AGM 25335.80280861  .00006412  00000+0  21474-2 0  9996",
        "tle_line2": "2 30474  98.9299  54.2673 0023250  38.9666  84.8589 14.37528724972365"
      },
      "geometry": {
        "type": "Point",
        "coordinates": [
          -128.70596206923113,
          -21.587664139307794
        ]
      }
    },
    {
      "type": "Feature",
      "properties": {
        "norad_id": 30475,
        "name": "FENGYUN 1C DEB",
        "group": "fengyun-1c-debris",
        "lat": 5.8287060835628,
        "lon": 17.139622140038124,
        "alt_km": 820.7113174020951,
        "timestamp": "2025-12-02T08:59:32.990846+00:00",
        "meta_object_name": "FENGYUN 1C DEB",
        "meta_object_id": "1999-025AGN",
        "meta_epoch": "2025-12-01T18:00:45.427392",
        "meta_mean_motion": 14.15625974,
        "meta_eccentricity": 0.0042067,
        "meta_inclination": 98.7886,
        "meta_ra_of_asc_node": 17.4292,
        "meta_arg_of_pericenter": 322.9048,
        "meta_mean_anomaly": 103.6627,
        "meta_ephemeris_type": 0,
        "meta_classification_type": "U",
        "meta_norad_cat_id": 30475,
        "meta_element_set_no": 999,
        "meta_rev_at_epoch": 96796,
        "meta_bstar": 0.00077748,
        "meta_mean_motion_dot": 1.492e-05,
        "meta_mean_motion_ddot": 0,
        "tle_line1": "1 30475U 99025AGN 25335.75052578  .00001492  00000+0  77748-3 0  9992",
        "tle_line2": "2 30475  98.7886  17.4292 0042067 322.9048 103.6627 14.15625974967965"
      },
      "geometry": {
        "type": "Point",
        "coordinates": [
          17.139622140038124,
          5.8287060835628
        ]
      }
    }
  ]
}